{
  "norad_id": 64452,
  "name": "STARLINK-34367",
  "history": [
    {
      "epoch": "2026-03-28T11:41:31.180416",
      "apogee_km": 476.41607428922,
      "perigee_km": 473.9384641146189,
      "latitude_deg": -17.688919861342065,
      "longitude_deg": -48.03202176000923,
      "semi_major_axis_km": 6853.314269201919,
      "eccentricity": 0.00018076,
      "inclination_deg": 53.1626,
      "raan_deg": 1.0397,
      "arg_perigee_deg": 95.6727,
      "mean_anomaly_deg": 264.448,
      "mean_motion_rev_day": 15.3021266
    },
    {
      "epoch": "2026-03-29T03:22:02.898048",
      "apogee_km": 475.49928952137725,
      "perigee_km": 474.8304072609735,
      "latitude_deg": -33.689321021300294,
      "longitude_deg": 14.669886719901115,
      "semi_major_axis_km": 6853.301848391175,
      "eccentricity": 4.88e-05,
      "inclination_deg": 53.162,
      "raan_deg": 358.0065,
      "arg_perigee_deg": 139.1815,
      "mean_anomaly_deg": 220.9222,
      "mean_motion_rev_day": 15.3021682
    }
  ]
}